{"type": "FeatureCollection", "features": [ {"type": "Feature", "properties": {"norad_id": 34303, "name": "COSMOS 2251 DEB", "group": "cosmos-2251-debris", "lat": -53.71585428005464, "lon": -100.10395750069861, "alt_km": 760.866747952191, "timestamp": "2025-12-15T10:55:21.538643+00:00", "meta": {"OBJECT_NAME": "COSMOS 2251 DEB", "OBJECT_ID": "1993-036MZ", "EPOCH": "2025-12-14T20:35:33.511200", "MEAN_MOTION": 14.54485516, "ECCENTRICITY": 0.01351146, "INCLINATION": 74.0053, "RA_OF_ASC_NODE": 284.0257, "ARG_OF_PERICENTER": 61.8457, "MEAN_ANOMALY": 357.4625, "EPHEMERIS_TYPE": 0, "CLASSIFICATION_TYPE": "U", "NORAD_CAT_ID": 34303, "ELEMENT_SET_NO": 999, "REV_AT_EPOCH": 87993, "BSTAR": 0.0009707797, "MEAN_MOTION_DOT": 4.644e-05, "MEAN_MOTION_DDOT": 0}, "tle": {"line1": "1 34303U 93036MZ  25348.85802675  .00004644  00000+0  97078-3 0  9998", "line2": "2 34303  74.0053 284.0257 0135114  61.8457 357.4625 14.54485516879939"}}, "geometry": {"type": "Point", "coordinates": [-100.10395750069861, -53.71585428005464]}}, {"type": "Feature", "properties": {"norad_id": 34304, "name": "COSMOS 2251 DEB", "group": "cosmos-2251-debris", "lat": -67.40582632528809, "lon": -18.86858962000712, "alt_km": 680.2556190750238, "timestamp": "2025-12-15T10:55:21.538654+00:00", "meta": {"OBJECT_NAME": "COSMOS 2251 DEB", "OBJECT_ID": "1993-036NA", "EPOCH": "2025-12-14T19:25:23.771424", "MEAN_MOTION": 14.37884106, "ECCENTRICITY": 0.01289634, "INCLINATION": 74.0128, "RA_OF_ASC_NODE": 118.7772, "ARG_OF_PERICENTER": 256.1543, "MEAN_ANOMALY": 256.0578, "EPHEMERIS_TYPE": 0, "CLASSIFICATION_TYPE": "U", "NORAD_CAT_ID": 34304, "ELEMENT_SET_NO": 999, "REV_AT_EPOCH": 87326, "BSTAR": 0.0013845684, "MEAN_MOTION_DOT": 4.574e-05, "MEAN_MOTION_DDOT": 0}, "tle": {"line1": "1 34304U 93036NA  25348.80930291  .00004574  00000+0  13846-2 0  9992", "line2": "2 34304  74.0128 118.7772 0128963 256.1543 256.0578 14.37884106873267"}}, "geometry": {"type": "Point", "coordinates": [-18.86858962000712, -67.40582632528809]}}, {"type": "Feature", "properties": {"norad_id": 34307, "name": "COSMOS 2251 DEB", "group": "cosmos-2251-debris", "lat": -0.2802955002208999, "lon": -51.321856454798485, "alt_km": 1274.8775532928803, "timestamp": "2025-12-15T10:55:21.538664+00:00", "meta": {"OBJECT_NAME": "COSMOS 2251 DEB", "OBJECT_ID": "1993-036ND", "EPOCH": "2025-12-14T22:48:16.494624", "MEAN_MOTION": 13.54323697, "ECCENTRICITY": 0.03920043, "INCLINATION": 74.0534, "RA_OF_ASC_NODE": 309.5682, "ARG_OF_PERICENTER": 140.0241, "MEAN_ANOMALY": 281.9415, "EPHEMERIS_TYPE": 0, "CLASSIFICATION_TYPE": "U", "NORAD_CAT_ID": 34307, "ELEMENT_SET_NO": 999, "REV_AT_EPOCH": 82892, "BSTAR": 0.00066072288, "MEAN_MOTION_DOT": 7.16e-06, "MEAN_MOTION_DDOT": 0}, "tle": {"line1": "1 34307U 93036ND  25348.95019091  .00000716  00000+0  66072-3 0  9991", "line2": "2 34307  74.0534 309.5682 0392004 140.0241 281.9415 13.54323697828927"}}, "geometry": {"type": "Point", "coordinates": [-51.321856454798485, -0.2802955002208999]}}, {"type": "Feature", "properties": {"norad_id": 34313, "name": "COSMOS 2251 DEB", "group": "cosmos-2251-debris", "lat": -36.2724093047573, "lon": -72.39355902049596, "alt_km": 516.3351198093569, "timestamp": "2025-12-15T10:55:21.538675+00:00", "meta": {"OBJECT_NAME": "COSMOS 2251 DEB", "OBJECT_ID": "1993-036NK", "EPOCH": "2025-12-14T22:26:55.490208", "MEAN_MOTION": 15.19519915, "ECCENTRICITY": 0.00113474, "INCLINATION": 73.9722, "RA_OF_ASC_NODE": 300.8772, "ARG_OF_PERICENTER": 77.5913, "MEAN_ANOMALY": 282.6553, "EPHEMERIS_TYPE": 0, "CLASSIFICATION_TYPE": "U", "NORAD_CAT_ID": 34313, "ELEMENT_SET_NO": 999, "REV_AT_EPOCH": 89098, "BSTAR": 0.0025815642, "MEAN_MOTION_DOT": 0.00055329, "MEAN_MOTION_DDOT": 0}, "tle": {"line1": "1 34313U 93036NK  25348.93536447  .00055329  00000+0  25816-2 0  9995", "line2": "2 34313  73.9722 300.8772 0011347  77.5913 282.6553 15.19519915890982"}}, "geometry": {"type": "Point", "coordinates": [-72.39355902049596, -36.2724093047573]}}, {"type": "Feature", "properties": {"norad_id": 34314, "name": "COSMOS 2251 DEB", "group": "cosmos-2251-debris", "lat": 63.40806683227756, "lon": -21.504344132985974, "alt_km": 757.6466601334232, "timestamp": "2025-12-15T10:55:21.538685+00:00", "meta": {"OBJECT_NAME": "COSMOS 2251 DEB", "OBJECT_ID": "1993-036NL", "EPOCH": "2025-12-14T21:09:24.058080", "MEAN_MOTION": 14.17428171, "ECCENTRICITY": 0.01029148, "INCLINATION": 74.0055, "RA_OF_ASC_NODE": 304.5609, "ARG_OF_PERICENTER": 49.7277, "MEAN_ANOMALY": 332.7012, "EPHEMERIS_TYPE": 0, "CLASSIFICATION_TYPE": "U", "NORAD_CAT_ID": 34314, "ELEMENT_SET_NO": 999, "REV_AT_EPOCH": 86688, "BSTAR": 0.00055639809, "MEAN_MOTION_DOT": 1.163e-05, "MEAN_MOTION_DDOT": 0}, "tle": {"line1": "1 34314U 93036NL  25348.88152845  .00001163  00000+0  55640-3 0  9992", "line2": "2 34314  74.0055 304.5609 0102914  49.7277 332.7012 14.17428171866888"}}, "geometry": {"type": "Point", "coordinates": [-21.504344132985974, 63.40806683227756]}}, {"type": "Feature", "properties": {"norad_id": 34316, "name": "COSMOS 2251 DEB", "group": "cosmos-2251-debris", "lat": -73.72138718828117, "lon": -130.47924855149927, "alt_km": 603.8583702235046, "timestamp": "2025-12-15T10:55:21.538695+00:00", "meta": {"OBJECT_NAME": "COSMOS 2251 DEB", "OBJECT_ID": "1993-036NN", "EPOCH": "2025-12-14T09:35:27.321792", "MEAN_MOTION": 14.91899584, "ECCENTRICITY": 0.00084929, "INCLINATION": 74.0652, "RA_OF_ASC_NODE": 333.5638, "ARG_OF_PERICENTER": 56.75, "MEAN_ANOMALY": 303.4495, "EPHEMERIS_TYPE": 0, "CLASSIFICATION_TYPE": "U", "NORAD_CAT_ID": 34316, "ELEMENT_SET_NO": 999, "REV_AT_EPOCH": 89234, "BSTAR": 0.0016869925, "MEAN_MOTION_DOT": 0.00017078, "MEAN_MOTION_DDOT": 0}, "tle": {"line1": "1 34316U 93036NN  25348.39962178  .00017078  00000+0  16870-2 0  9991", "line2": "2 34316  74.0652 333.5638 0008492  56.7500 303.4495 14.91899584892342"}}, "geometry": {"type": "Point", "coordinates": [-130.47924855149927, -73.72138718828117]}}, {"type": "Feature", "properties": {"norad_id": 34317, "name": "COSMOS 2251 DEB", "group": "cosmos-2251-debris", "lat": -32.209729328244244, "lon": -138.24555220297097, "alt_km": 1264.311266290134, "timestamp": "2025-12-15T10:55:21.538706+00:00", "meta": {"OBJECT_NAME": "COSMOS 2251 DEB", "OBJECT_ID": "1993-036NP", "EPOCH": "2025-12-14T13:29:57.496992", "MEAN_MOTION": 13.65123455, "ECCENTRICITY": 0.03365762, "INCLINATION": 73.9247, "RA_OF_ASC_NODE": 32.7576, "ARG_OF_PERICENTER": 21.6635, "MEAN_ANOMALY": 127.671, "EPHEMERIS_TYPE": 0, "CLASSIFICATION_TYPE": "U", "NORAD_CAT_ID": 34317, "ELEMENT_SET_NO": 999, "REV_AT_EPOCH": 83644, "BSTAR": 0.0004507498, "MEAN_MOTION_DOT": 5.16e-06, "MEAN_MOTION_DDOT": 0}, "tle": {"line1": "1 34317U 93036NP  25348.56247103  .00000516  00000+0  45075-3 0  9994", "line2": "2 34317  73.9247  32.7576 0336576  21.6635 127.6710 13.65123455836449"}}, "geometry": {"type": "Point", "coordinates": [-138.24555220297097, -32.209729328244244]}}, {"type": "Feature", "properties": {"norad_id": 34321, "name": "COSMOS 2251 DEB", "group": "cosmos-2251-debris", "lat": 7.237979314141139, "lon": 153.34477451915106, "alt_km": 726.4819526998272, "timestamp": "2025-12-15T10:55:21.538716+00:00", "meta": {"OBJECT_NAME": "COSMOS 2251 DEB", "OBJECT_ID": "1993-036NT", "EPOCH": "2025-12-14T20:30:39.885120", "MEAN_MOTION": 14.50065686, "ECCENTRICITY": 0.00158424, "INCLINATION": 74.0276, "RA_OF_ASC_NODE": 152.388, "ARG_OF_PERICENTER": 281.7827, "MEAN_ANOMALY": 192.2953, "EPHEMERIS_TYPE": 0, "CLASSIFICATION_TYPE": "U", "NORAD_CAT_ID": 34321, "ELEMENT_SET_NO": 999, "REV_AT_EPOCH": 88517, "BSTAR": 0.00052290105, "MEAN_MOTION_DOT": 2.004e-05, "MEAN_MOTION_DDOT": 0}, "tle": {"line1": "1 34321U 93036NT  25348.85462830  .00002004  00000+0  52290-3 0  9998", "line2": "2 34321  74.0276 152.3880 0015842 281.7827 192.2953 14.50065686885174"}}, "geometry": {"type": "Point", "coordinates": [153.34477451915106, 7.237979314141139]}}, {"type": "Feature", "properties": {"norad_id": 34323, "name": "COSMOS 2251 DEB", "group": "cosmos-2251-debris", "lat": -72.15443348624873, "lon": 1.173351853893481, "alt_km": 661.1569558976098, "timestamp": "2025-12-15T10:55:21.538727+00:00", "meta": {"OBJECT_NAME": "COSMOS 2251 DEB", "OBJECT_ID": "1993-036NV", "EPOCH": "2025-12-14T19:48:23.697792", "MEAN_MOTION": 14.74514629, "ECCENTRICITY": 0.005871, "INCLINATION": 73.9524, "RA_OF_ASC_NODE": 119.0205, "ARG_OF_PERICENTER": 162.5515, "MEAN_ANOMALY": 356.914, "EPHEMERIS_TYPE": 0, "CLASSIFICATION_TYPE": "U", "NORAD_CAT_ID": 34323, "ELEMENT_SET_NO": 999, "REV_AT_EPOCH": 88470, "BSTAR": 0.0021415653, "MEAN_MOTION_DOT": 0.00014645, "MEAN_MOTION_DDOT": 0}, "tle": {"line1": "1 34323U 93036NV  25348.82527428  .00014645  00000+0  21416-2 0  9991", "line2": "2 34323  73.9524 119.0205 0058710 162.5515 356.9140 14.74514629884709"}}, "geometry": {"type": "Point", "coordinates": [1.173351853893481, -72.15443348624873]}}, {"type": "Feature", "properties": {"norad_id": 34325, "name": "COSMOS 2251 DEB", "group": "cosmos-2251-debris", "lat": 27.78360446090377, "lon": -0.7464311356666142, "alt_km": 792.913786059301, "timestamp": "2025-12-15T10:55:21.538738+00:00", "meta": {"OBJECT_NAME": "COSMOS 2251 DEB", "OBJECT_ID": "1993-036NX", "EPOCH": "2025-12-14T15:44:05.214624", "MEAN_MOTION": 14.04486298, "ECCENTRICITY": 0.0192079, "INCLINATION": 73.8709, "RA_OF_ASC_NODE": 189.4313, "ARG_OF_PERICENTER": 206.3716, "MEAN_ANOMALY": 225.4564, "EPHEMERIS_TYPE": 0, "CLASSIFICATION_TYPE": "U", "NORAD_CAT_ID": 34325, "ELEMENT_SET_NO": 999, "REV_AT_EPOCH": 85542, "BSTAR": 0.0016990862, "MEAN_MOTION_DOT": 3.17e-05, "MEAN_MOTION_DDOT": 0}, "tle": {"line1": "1 34325U 93036NX  25348.65561591  .00003170  00000+0  16991-2 0  9996", "line2": "2 34325  73.8709 189.4313 0192079 206.3716 225.4564 14.04486298855423"}}, "geometry": {"type": "Point", "coordinates": [-0.7464311356666142, 27.78360446090377]}}]}